{
  "links" : {
    "next" : "https://api.nasa.gov/neo/rest/v1/feed?start_date=2002-08-16&end_date=2002-08-16&detailed=true&api_key=t0TVs3DtDT2H8Oy2Zy8m2eVrNsAVKAexjcZXUckd",
    "prev" : "https://api.nasa.gov/neo/rest/v1/feed?start_date=2002-08-14&end_date=2002-08-14&detailed=true&api_key=t0TVs3DtDT2H8Oy2Zy8m2eVrNsAVKAexjcZXUckd",
    "self" : "https://api.nasa.gov/neo/rest/v1/feed?start_date=2002-08-15&end_date=2002-08-15&detailed=true&api_key=t0TVs3DtDT2H8Oy2Zy8m2eVrNsAVKAexjcZXUckd"
  },
  "element_count" : 8,
  "near_earth_objects" : {
    "2002-08-15" : [ {
      "links" : {
        "self" : "https://api.nasa.gov/neo/rest/v1/neo/3117446?api_key=t0TVs3DtDT2H8Oy2Zy8m2eVrNsAVKAexjcZXUckd"
      },
      "neo_reference_id" : "3117446",
      "name" : "(2002 FW1)",
      "nasa_jpl_url" : "http://ssd.jpl.nasa.gov/sbdb.cgi?sstr=3117446",
      "absolute_magnitude_h" : 24.0,
      "estimated_diameter" : {
        "kilometers" : {
          "estimated_diameter_min" : 0.0421264611,
          "estimated_diameter_max" : 0.0941976306
        },
        "meters" : {
          "estimated_diameter_min" : 42.1264610556,
          "estimated_diameter_max" : 94.1976305719
        },
        "miles" : {
          "estimated_diameter_min" : 0.0261761612,
          "estimated_diameter_max" : 0.0585316759
        },
        "feet" : {
          "estimated_diameter_min" : 138.2101784897,
          "estimated_diameter_max" : 309.0473542854
        }
      },
      "is_potentially_hazardous_asteroid" : false,
      "close_approach_data" : [ {
        "close_approach_date" : "2002-08-15",
        "epoch_date_close_approach" : 1029394800000,
        "relative_velocity" : {
          "kilometers_per_second" : "11.2627314924",
          "kilometers_per_hour" : "40545.8333727577",
          "miles_per_hour" : "25193.6040754227"
        },
        "miss_distance" : {
          "astronomical" : "0.3760480004",
          "lunar" : "146.2826690674",
          "kilometers" : "56255980",
          "miles" : "34955844"
        },
        "orbiting_body" : "Earth"
      } ],
      "orbital_data" : {
        "orbit_id" : "8",
        "orbit_determination_date" : "2017-04-06 09:15:19",
        "orbit_uncertainty" : "8",
        "minimum_orbit_intersection" : ".00849026",
        "jupiter_tisserand_invariant" : "7.057",
        "epoch_osculation" : "2452358.5",
        "eccentricity" : ".3420395941822435",
        "semi_major_axis" : ".8240252786422374",
        "inclination" : "6.628118117921677",
        "ascending_node_longitude" : "164.2963041743963",
        "orbital_period" : "273.2179503692442",
        "perihelion_distance" : ".5421760067395364",
        "perihelion_argument" : "223.2220307604914",
        "aphelion_distance" : "1.105874550544939",
        "perihelion_time" : "2452259.501451589731",
        "mean_anomaly" : "130.4433964881567",
        "mean_motion" : "1.317629385307492",
        "equinox" : "J2000"
      }
    }, {
      "links" : {
        "self" : "https://api.nasa.gov/neo/rest/v1/neo/3131064?api_key=t0TVs3DtDT2H8Oy2Zy8m2eVrNsAVKAexjcZXUckd"
      },
      "neo_reference_id" : "3131064",
      "name" : "(2002 OS4)",
      "nasa_jpl_url" : "http://ssd.jpl.nasa.gov/sbdb.cgi?sstr=3131064",
      "absolute_magnitude_h" : 18.3,
      "estimated_diameter" : {
        "kilometers" : {
          "estimated_diameter_min" : 0.5815070396,
          "estimated_diameter_max" : 1.30028927
        },
        "meters" : {
          "estimated_diameter_min" : 581.5070396458,
          "estimated_diameter_max" : 1300.2892700427
        },
        "miles" : {
          "estimated_diameter_min" : 0.3613316107,
          "estimated_diameter_max" : 0.807962044
        },
        "feet" : {
          "estimated_diameter_min" : 1907.8315559515,
          "estimated_diameter_max" : 4266.0410487267
        }
      },
      "is_potentially_hazardous_asteroid" : false,
      "close_approach_data" : [ {
        "close_approach_date" : "2002-08-15",
        "epoch_date_close_approach" : 1029394800000,
        "relative_velocity" : {
          "kilometers_per_second" : "13.7205349129",
          "kilometers_per_hour" : "49393.9256865728",
          "miles_per_hour" : "30691.4645467486"
        },
        "miss_distance" : {
          "astronomical" : "0.422826498",
          "lunar" : "164.4795074463",
          "kilometers" : "63253944",
          "miles" : "39304180"
        },
        "orbiting_body" : "Earth"
      } ],
      "orbital_data" : {
        "orbit_id" : "93",
        "orbit_determination_date" : "2017-04-06 09:15:01",
        "orbit_uncertainty" : "0",
        "minimum_orbit_intersection" : ".29933",
        "jupiter_tisserand_invariant" : "3.672",
        "epoch_osculation" : "2458000.5",
        "eccentricity" : ".4536534560142245",
        "semi_major_axis" : "1.923948703035512",
        "inclination" : "26.79932092203626",
        "ascending_node_longitude" : "289.4766843406335",
        "orbital_period" : "974.7397111529248",
        "perihelion_distance" : "1.051142724709367",
        "perihelion_argument" : "102.1647913124261",
        "aphelion_distance" : "2.796754681361657",
        "perihelion_time" : "2458423.909034585769",
        "mean_anomaly" : "203.6226094958361",
        "mean_motion" : ".3693293664769141",
        "equinox" : "J2000"
      }
    }, {
      "links" : {
        "self" : "https://api.nasa.gov/neo/rest/v1/neo/3133157?api_key=t0TVs3DtDT2H8Oy2Zy8m2eVrNsAVKAexjcZXUckd"
      },
      "neo_reference_id" : "3133157",
      "name" : "(2002 QZ6)",
      "nasa_jpl_url" : "http://ssd.jpl.nasa.gov/sbdb.cgi?sstr=3133157",
      "absolute_magnitude_h" : 19.7,
      "estimated_diameter" : {
        "kilometers" : {
          "estimated_diameter_min" : 0.3051792326,
          "estimated_diameter_max" : 0.6824015094
        },
        "meters" : {
          "estimated_diameter_min" : 305.1792325939,
          "estimated_diameter_max" : 682.4015094011
        },
        "miles" : {
          "estimated_diameter_min" : 0.1896295249,
          "estimated_diameter_max" : 0.4240245083
        },
        "feet" : {
          "estimated_diameter_min" : 1001.2442334633,
          "estimated_diameter_max" : 2238.8501681036
        }
      },
      "is_potentially_hazardous_asteroid" : false,
      "close_approach_data" : [ {
        "close_approach_date" : "2002-08-15",
        "epoch_date_close_approach" : 1029394800000,
        "relative_velocity" : {
          "kilometers_per_second" : "13.1376534137",
          "kilometers_per_hour" : "47295.5522891868",
          "miles_per_hour" : "29387.6169210228"
        },
        "miss_distance" : {
          "astronomical" : "0.0845085411",
          "lunar" : "32.8738212585",
          "kilometers" : "12642297",
          "miles" : "7855559.5"
        },
        "orbiting_body" : "Earth"
      } ],
      "orbital_data" : {
        "orbit_id" : "33",
        "orbit_determination_date" : "2017-04-06 09:14:56",
        "orbit_uncertainty" : "0",
        "minimum_orbit_intersection" : ".0828791",
        "jupiter_tisserand_invariant" : "3.667",
        "epoch_osculation" : "2458000.5",
        "eccentricity" : ".4428655018631513",
        "semi_major_axis" : "1.966255678197105",
        "inclination" : "22.22711640610206",
        "ascending_node_longitude" : "323.4066214267624",
        "orbital_period" : "1007.067107857391",
        "perihelion_distance" : "1.095468870481073",
        "perihelion_argument" : "359.8998377967513",
        "aphelion_distance" : "2.837042485913137",
        "perihelion_time" : "2457538.518799360223",
        "mean_anomaly" : "165.1461267404149",
        "mean_motion" : ".3574736948423689",
        "equinox" : "J2000"
      }
    } ]
  }
}